STARLINK-31004          
1 58528U 23191W   26068.17018195 -.00000970  00000+0 -26480-4 0  9999
2 58528  43.0025 106.2086 0001016 256.7184 103.3554 15.26740931125397
2025-313BE              
1 67482U 25313BE  26068.69721505  .00077178  00000+0  26504-2 0  9996
2 67482  97.3989 145.3568 0007208 335.3714  24.7181 15.29801687  7972
